{"generatedAt":"2026-05-05T08:19:47.084492Z","satellites":[{"name":"KUIPER-00148","tle1":"1 65769C 25217H   26125.13589120 -.00002418  00000+0 -34465-3 0  1257","tle2":"2 65769  51.9023 131.5883 0001669 196.5027 106.8690 14.76319342    17"},{"name":"KUIPER-00150","tle1":"1 65770C 25217J   26125.18658565 -.00052924  00000+0 -69269-2 0  1250","tle2":"2 65770  51.8987 160.7837 0000655  92.2209  29.0093 14.79990622    10"},{"name":"KUIPER-00151","tle1":"1 65771C 25217K   26125.30082176 -.00000940  00000+0 -12309-3 0  1259","tle2":"2 65771  51.8988 152.7758 0000433  59.5536 267.3508 14.79912730    10"},{"name":"KUIPER-00152","tle1":"1 65772C 25217L   26125.10631944 -.00001906  00000+0 -24950-3 0  1259","tle2":"2 65772  51.8981 141.1246 0000464  46.5648  71.4130 14.79924985    12"},{"name":"KUIPER-00153","tle1":"1 65773C 25217M   26125.09375000 -.00002836  00000+0 -40279-3 0  1251","tle2":"2 65773  51.8999 136.0727 0000410 320.9414 149.1815 14.76478836    19"},{"name":"KUIPER-00155","tle1":"1 65774C 25217N   26125.17754630 -.00327060  00000+0 -40328-1 0  1253","tle2":"2 65774  51.9010 108.3829 0000936 114.9663 171.1603 14.82756243    18"},{"name":"KUIPER-00156","tle1":"1 65775C 25217P   26125.31458333  .00001681  00000+0  21998-3 0  1251","tle2":"2 65775  51.9004 135.2461 0000565  65.3511 234.2521 14.79940633    16"},{"name":"KUIPER-00163","tle1":"1 65777C 25217R   26125.18968750  .00081365  00000+0  47501-3 0  1252","tle2":"2 65777  51.8961 127.9741 0003559  46.5672 278.1835 15.77579817    19"},{"name":"KUIPER-00165","tle1":"1 65778C 25217S   26125.16753472 -.00001934  00000+0 -25333-3 0  1259","tle2":"2 65778  51.8981 145.8561 0000506  67.7097 225.5574 14.79913175    12"},{"name":"KUIPER-00166","tle1":"1 65779C 25217T   26125.28310185  .00001766  00000+0  23127-3 0  1253","tle2":"2 65779  51.9005 132.8804 0000542  68.3482 228.8319 14.79921414    10"},{"name":"KUIPER-00167","tle1":"1 65780C 25217U   26125.12152778 -.00001733  00000+0 -22685-3 0  1254","tle2":"2 65780  51.8937 156.0008 0000535  85.5246  19.7786 14.79931311    12"},{"name":"KUIPER-00168","tle1":"1 65781C 25217V   26125.31152778  .00001140  00000+0  14919-3 0  1257","tle2":"2 65781  51.8985 137.7230 0000486  72.3466 225.2794 14.79933117    11"},{"name":"KUIPER-00169","tle1":"1 65782C 25217W   26125.16359954 -.00002164  00000+0 -28331-3 0  1258","tle2":"2 65782  51.8989 143.3833 0000539  75.6644 181.9414 14.79925269    17"},{"name":"KUIPER-00170","tle1":"1 65783C 25217X   26125.22831019 -.00002925  00000+0 -38206-3 0  1250","tle2":"2 65783  51.8966 148.0642 0000438  23.0631 251.5641 14.80029155    11"},{"name":"KUIPER-00172","tle1":"1 65785C 25217Z   26125.30041667  .00000354  00000+0  50059-4 0  1256","tle2":"2 65785  51.8961 129.7196 0001428 128.4712 177.2617 14.76685063    16"},{"name":"KUIPER-00173","tle1":"1 65786C 25217AA  26125.15868056 -.00003508  00000+0 -45775-3 0  1253","tle2":"2 65786  51.8982 143.4068 0000989 341.9582  68.4120 14.80072530    13"},{"name":"KUIPER-00174","tle1":"1 65787C 25217AB  26125.11015046 -.00001245  00000+0 -16308-3 0  1259","tle2":"2 65787  51.9006 138.6523 0000604  72.4224  51.8080 14.79911374    14"},{"name":"KUIPER-00176","tle1":"1 65788C 25217AC  26125.16299769 -.00001003  00000+0 -13134-3 0  1257","tle2":"2 65788  51.8973 153.3740 0000545  81.2654  50.9552 14.79912412    19"},{"name":"KUIPER-00101","tle1":"1 65947C 25228A   26125.27616898  .00005502  00000+0  72066-3 0  1259","tle2":"2 65947  51.8967 110.3416 0000632  71.8651 239.4260 14.79898215    15"},{"name":"KUIPER-00113","tle1":"1 65948C 25228B   26125.28137732  .00005591  00000+0  73175-3 0  1256","tle2":"2 65948  51.8971 105.3384 0000578  44.5881  84.7408 14.79934998    14"},{"name":"KUIPER-00117","tle1":"1 65949C 25228C   26125.27960648  .00005534  00000+0  72435-3 0  1251","tle2":"2 65949  51.8969 107.8462 0000665  63.7906 251.1639 14.79928286    13"},{"name":"KUIPER-00121","tle1":"1 65950C 25228D   26125.24971065  .00005662  00000+0  74161-3 0  1255","tle2":"2 65950  51.8984 102.9816 0000862  61.0691 245.9699 14.79901785    14"},{"name":"KUIPER-00122","tle1":"1 65951C 25228E   26125.26887732  .00003304  00000+0  43254-3 0  1255","tle2":"2 65951  51.8977 112.8736 0000587  63.9289  42.6001 14.79924573    15"},{"name":"KUIPER-00123","tle1":"1 65952C 25228F   26125.30328704  .00005556  00000+0  72815-3 0  1256","tle2":"2 65952  51.8968 112.7401 0000722  90.4393  18.4777 14.79872768    15"},{"name":"KUIPER-00124","tle1":"1 65953C 25228G   26125.21193287  .00002655  00000+0  34768-3 0  1255","tle2":"2 65953  51.8972 105.6299 0000692  89.6384 210.3426 14.79906687    15"},{"name":"KUIPER-00125","tle1":"1 65954C 25228H   26125.23068287  .00006551  00000+0  85767-3 0  1253","tle2":"2 65954  51.8994  90.5803 0000742  74.0766 239.4780 14.79917148    10"},{"name":"KUIPER-00126","tle1":"1 65955C 25228J   26125.17582176 -.00031035  00000+0 -40643-2 0  1255","tle2":"2 65955  51.8976 110.8155 0000677  95.7312 220.5946 14.79944185    17"},{"name":"KUIPER-00127","tle1":"1 65956C 25228K   26125.30736111  .00003526  00000+0  46110-3 0  1259","tle2":"2 65956  51.8993 102.6953 0001327  69.5821 274.3930 14.79965258    13"},{"name":"KUIPER-00128","tle1":"1 65957C 25228L   26125.21622685  .00002460  00000+0  32208-3 0  1259","tle2":"2 65957  51.8995 103.1619 0000684  71.0029 237.3954 14.79916740    11"},{"name":"KUIPER-00129","tle1":"1 65958C 25228M   26125.21714120  .00004777  00000+0  62499-3 0  1254","tle2":"2 65958  51.8995  98.1409 0000718  55.4089  49.2009 14.79948631    17"},{"name":"KUIPER-00130","tle1":"1 65959C 25228N   26125.15325232 -.00000038  00000+0 -50196-5 0  1251","tle2":"2 65959  51.9014 100.9418 0000671  65.3964 252.9003 14.79943250    12"},{"name":"KUIPER-00134","tle1":"1 65960C 25228P   26125.29831019  .00013811  00000+0  33747-3 0  1255","tle2":"2 65960  51.8736  45.7793 0006346 146.2253  78.8656 15.40182887    10"},{"name":"KUIPER-00135","tle1":"1 65961C 25228Q   26125.25325232  .00006096  00000+0  79778-3 0  1258","tle2":"2 65961  51.9010 100.5586 0000671  66.9324 244.3752 14.79933819    16"},{"name":"KUIPER-00136","tle1":"1 65962C 25228R   26125.15870370 -.00001331  00000+0 -17444-3 0  1257","tle2":"2 65962  51.8993  98.4474 0000922  48.8064 280.8333 14.79873504    10"},{"name":"KUIPER-00137","tle1":"1 65963C 25228S   26125.22443287  .00005621  00000+0  73586-3 0  1252","tle2":"2 65963  51.9022  95.6270 0000692  85.8453 223.0537 14.79920569    14"},{"name":"KUIPER-00138","tle1":"1 65964C 25228T   26125.12702546  .00000074  00000+0  97054-5 0  1253","tle2":"2 65964  51.8976  93.5179 0000731  83.3379 232.0203 14.79929585    18"},{"name":"KUIPER-00140","tle1":"1 65965C 25228U   26125.25880787  .00005472  00000+0  71607-3 0  1253","tle2":"2 65965  51.8981  95.5209 0000691  73.3739 238.8651 14.79937332    15"},{"name":"KUIPER-00141","tle1":"1 65966C 25228V   26125.19525463  .00003962  00000+0  51890-3 0  1258","tle2":"2 65966  51.9018  90.8331 0000733  90.8385 213.8992 14.79909099    10"},{"name":"KUIPER-00146","tle1":"1 65967C 25228W   26125.22719907  .00006449  00000+0  84413-3 0  1251","tle2":"2 65967  51.9020  93.2012 0000786  74.8027 234.4830 14.79927383    16"},{"name":"KUIPER-00149","tle1":"1 65968C 25228X   26125.19594907 -.00016008  00000+0 -20962-2 0  1251","tle2":"2 65968  51.9002  88.2371 0000762  71.3668 222.7302 14.79932698    15"},{"name":"KUIPER-00154","tle1":"1 65969C 25228Y   26125.23623843  .00005868  00000+0  76808-3 0  1250","tle2":"2 65969  51.8992  85.5574 0000711  88.6480 225.7407 14.79929266    11"},{"name":"KUIPER-00157","tle1":"1 65970C 25228Z   26125.19422454  .00005068  00000+0  66333-3 0  1256","tle2":"2 65970  51.9017  88.3651 0000782  66.9741  37.7752 14.79932525    12"},{"name":"KUIPER-00144","tle1":"1 67133C 25301A   26125.17291667 -.00002911  00000+0 -41371-3 0  1250","tle2":"2 67133  51.8981 165.0882 0000434  11.5413  97.2732 14.76460016    16"},{"name":"KUIPER-00164","tle1":"1 67134C 25301B   26125.25150463 -.00004577  00000+0 -65024-3 0  1259","tle2":"2 67134  51.9010 176.2192 0001650 109.9991 294.1794 14.76470348    18"},{"name":"KUIPER-00175","tle1":"1 67135C 25301C   26125.22511574 -.00003020  00000+0 -29284-3 0  1251","tle2":"2 67135  51.8927 165.8630 0000518  49.7541 253.2408 14.92188031    11"},{"name":"KUIPER-00179","tle1":"1 67136C 25301D   26125.22164352 -.00001554  00000+0 -20354-3 0  1259","tle2":"2 67136  51.8960 175.6188 0000603  88.1810 305.8397 14.79908464    13"},{"name":"KUIPER-00181","tle1":"1 67137C 25301E   26125.22459491 -.00001115  00000+0 -14601-3 0  1252","tle2":"2 67137  51.9004 188.1151 0001350  48.8099  72.9724 14.79931588    14"},{"name":"KUIPER-00183","tle1":"1 67138C 25301F   26125.16944444 -.00004250  00000+0 -40792-3 0  1256","tle2":"2 67138  51.8927 167.0145 0008667 256.4046 210.5731 14.92570625    18"},{"name":"KUIPER-00184","tle1":"1 67139C 25301G   26125.23516204 -.00003619  00000+0 -51452-3 0  1257","tle2":"2 67139  51.8970 169.8774 0001925  85.6824 163.1474 14.76434283    19"},{"name":"KUIPER-00186","tle1":"1 67140C 25301H   26125.25949074  .00000339  00000+0  44404-4 0  1250","tle2":"2 67140  51.8999 187.9721 0000485  81.9628  45.7372 14.79931793    19"},{"name":"KUIPER-00187","tle1":"1 67141C 25301J   26125.31054398  .00000141  00000+0  18437-4 0  1252","tle2":"2 67141  51.9009 190.2646 0000480  89.3713 324.9010 14.79944926    11"},{"name":"KUIPER-00188","tle1":"1 67142C 25301K   26125.15937500 -.00345030  00000+0 -43594-1 0  1250","tle2":"2 67142  51.9005 158.2348 0000571  51.5831  58.5503 14.81759828    19"},{"name":"KUIPER-00191","tle1":"1 67143C 25301L   26125.15901620 -.00034419  00000+0 -45059-2 0  1250","tle2":"2 67143  51.8984 183.4381 0000474  87.9628  15.5357 14.79962448    12"},{"name":"KUIPER-00196","tle1":"1 67144C 25301M   26125.13619213  .00003877  00000+0  99738-4 0  1250","tle2":"2 67144  51.8677 151.5648 0001966 194.8086  39.2740 15.38646843    10"}]}